0 LADEE
1 39246U 13047A   13274.41666670 -.00017976  00000-0  00000+0 0    38
2 39246 038.6000 228.5760 9598378 157.4930 358.5830 00.10081861    31
